ONEWEB-0379             
1 49305U 21090AC  25356.90131000  .00000233  00000+0  59485-3 0  9999
2 49305  87.9003 324.8288 0001908  83.0959 277.0388 13.14502067204401
ONEWEB-0380             
1 49306U 21090AD  25357.66926144  .00000020  00000+0  18719-4 0  9995
2 49306  87.9202 339.8982 0001807  92.6962 267.4378 13.19725515203274
ONEWEB-0381             
1 49307U 21090AE  25357.40257501 -.00000019  00000+0 -79036-4 0  9991
2 49307  87.9214 309.4970 0001950  87.9383 272.1974 13.20770904206622
ONEWEB-0382             
1 49308U 21090AF  25357.61721324  .00000008  00000+0 -12024-4 0  9995
2 49308  87.9215 309.4503 0002069  86.2171 273.9199 13.20769900206649
ONEWEB-0383             
1 49309U 21090AG  25357.19942285  .00000044  00000+0  84744-4 0  9997
2 49309  87.9007 324.7542 0002007  83.6088 276.5270 13.14503883204479
ONEWEB-0384             
1 49310U 21090AH  25357.61039409  .00000118  00000+0  25728-3 0  9999
2 49310  87.9227 309.4883 0002297  86.9312 273.2084 13.20800083206658
ONEWEB-0385             
1 49311U 21090AJ  25357.60932612  .00000011  00000+0 -51262-5 0  9994
2 49311  87.9215 309.4562 0001936  83.7309 276.4045 13.20770792206622
ONEWEB-0386             
1 49312U 21090AK  25357.62668892  .00000013  00000+0  12624-5 0  9993
2 49312  87.9218 309.4374 0002049  83.9841 276.1525 13.20770728206647
